{
  "type": "FeatureCollection",
  "features": [
    {
      "type": "Feature",
      "properties": {
        "norad_id": 39617,
        "name": "ASTRA 5B (EGNOS/PRN 123)",
        "group": "gnss",
        "lat": -0.0211624922208892,
        "lon": -158.24109408052942,
        "alt_km": 35782.03163896082,
        "timestamp": "2025-12-22T05:49:03.741663+00:00",
        "meta_object_name": "ASTRA 5B (EGNOS/PRN 123)",
        "meta_object_id": "2014-011B",
        "meta_epoch": "2025-12-21T18:26:41.031744",
        "meta_mean_motion": 1.00270041,
        "meta_eccentricity": 0.0004459,
        "meta_inclination": 0.0434,
        "meta_ra_of_asc_node": 4.0624,
        "meta_arg_of_pericenter": 274.0451,
        "meta_mean_anomaly": 112.6499,
        "meta_ephemeris_type": 0,
        "meta_classification_type": "U",
        "meta_norad_cat_id": 39617,
        "meta_element_set_no": 999,
        "meta_rev_at_epoch": 4288,
        "meta_bstar": 0,
        "meta_mean_motion_dot": 1.59e-06,
        "meta_mean_motion_ddot": 0,
        "tle_line1": "1 39617U 14011B   25355.76853046  .00000159  00000+0  00000+0 0  9995",
        "tle_line2": "2 39617   0.0434   4.0624 0004459 274.0451 112.6499  1.00270041 42889"
      },
      "geometry": {
        "type": "Point",
        "coordinates": [
          -158.24109408052942,
          -0.0211624922208892
        ]
      }
    },
    {
      "type": "Feature",
      "properties": {
        "norad_id": 39620,
        "name": "COSMOS 2492 (754)",
        "group": "gnss",
        "lat": -33.980353609366375,
        "lon": 157.90310387717426,
        "alt_km": 19137.535804440948,
        "timestamp": "2025-12-22T05:49:03.741675+00:00",
        "meta_object_name": "COSMOS 2492 (754)",
        "meta_object_id": "2014-012A",
        "meta_epoch": "2025-12-21T11:43:50.274048",
        "meta_mean_motion": 2.13103403,
        "meta_eccentricity": 0.0014252,
        "meta_inclination": 65.4028,
        "meta_ra_of_asc_node": 319.9737,
        "meta_arg_of_pericenter": 313.2084,
        "meta_mean_anomaly": 46.666,
        "meta_ephemeris_type": 0,
        "meta_classification_type": "U",
        "meta_norad_cat_id": 39620,
        "meta_element_set_no": 999,
        "meta_rev_at_epoch": 9145,
        "meta_bstar": 0,
        "meta_mean_motion_dot": -4.5e-07,
        "meta_mean_motion_ddot": 0,
        "tle_line1": "1 39620U 14012A   25355.48877632 -.00000045  00000+0  00000+0 0  9991",
        "tle_line2": "2 39620  65.4028 319.9737 0014252 313.2084  46.6660  2.13103403 91455"
      },
      "geometry": {
        "type": "Point",
        "coordinates": [
          157.90310387717426,
          -33.980353609366375
        ]
      }
    },
    {
      "type": "Feature",
      "properties": {
        "norad_id": 39635,
        "name": "IRNSS-1B",
        "group": "gnss",
        "lat": -4.914633726306456,
        "lon": -125.3350535765638,
        "alt_km": 35865.096928262545,
        "timestamp": "2025-12-22T05:49:03.741686+00:00",
        "meta_object_name": "IRNSS-1B",
        "meta_object_id": "2014-017A",
        "meta_epoch": "2025-12-21T18:32:21.878016",
        "meta_mean_motion": 1.00271154,
        "meta_eccentricity": 0.001853,
        "meta_inclination": 29.2394,
        "meta_ra_of_asc_node": 243.439,
        "meta_arg_of_pericenter": 175.0661,
        "meta_mean_anomaly": 5.3106,
        "meta_ephemeris_type": 0,
        "meta_classification_type": "U",
        "meta_norad_cat_id": 39635,
        "meta_element_set_no": 999,
        "meta_rev_at_epoch": 4301,
        "meta_bstar": 0,
        "meta_mean_motion_dot": 1.51e-06,
        "meta_mean_motion_ddot": 0,
        "tle_line1": "1 39635U 14017A   25355.77247544  .00000151  00000+0  00000+0 0  9994",
        "tle_line2": "2 39635  29.2394 243.4390 0018530 175.0661   5.3106  1.00271154 43019"
      },
      "geometry": {
        "type": "Point",
        "coordinates": [
          -125.3350535765638,
          -4.914633726306456
        ]
      }
    },
    {
      "type": "Feature",
      "properties": {
        "norad_id": 39727,
        "name": "LUCH 5V (SDCM/PRN 141)",
        "group": "gnss",
        "lat": -1.7466073899393255,
        "lon": -87.0499494678052,
        "alt_km": 35769.87182488719,
        "timestamp": "2025-12-22T05:49:03.741698+00:00",
        "meta_object_name": "LUCH 5V (SDCM/PRN 141)",
        "meta_object_id": "2014-023A",
        "meta_epoch": "2025-12-21T18:47:01.583808",
        "meta_mean_motion": 1.00275749,
        "meta_eccentricity": 0.0003704,
        "meta_inclination": 4.6915,
        "meta_ra_of_asc_node": 71.4643,
        "meta_arg_of_pericenter": 213.0633,
        "meta_mean_anomaly": 182.53,
        "meta_ephemeris_type": 0,
        "meta_classification_type": "U",
        "meta_norad_cat_id": 39727,
        "meta_element_set_no": 999,
        "meta_rev_at_epoch": 4258,
        "meta_bstar": 0,
        "meta_mean_motion_dot": -2.5e-06,
        "meta_mean_motion_ddot": 0,
        "tle_line1": "1 39727U 14023A   25355.78265722 -.00000250  00000+0  00000+0 0  9993",
        "tle_line2": "2 39727   4.6915  71.4643 0003704 213.0633 182.5300  1.00275749 42585"
      },
      "geometry": {
        "type": "Point",
        "coordinates": [
          -87.0499494678052,
          -1.7466073899393255
        ]
      }
    },
    {
      "type": "Feature",
      "properties": {
        "norad_id": 39741,
        "name": "GPS BIIF-6  (PRN 06)",
        "group": "gnss",
        "lat": -15.08623304268771,
        "lon": 168.64393768623208,
        "alt_km": 20237.99681375463,
        "timestamp": "2025-12-22T05:49:03.741709+00:00",
        "meta_object_name": "GPS BIIF-6  (PRN 06)",
        "meta_object_id": "2014-026A",
        "meta_epoch": "2025-12-18T23:24:45.525888",
        "meta_mean_motion": 2.00561009,
        "meta_eccentricity": 0.00393411,
        "meta_inclination": 56.5812,
        "meta_ra_of_asc_node": 338.5339,
        "meta_arg_of_pericenter": 319.0443,
        "meta_mean_anomaly": 40.6665,
        "meta_ephemeris_type": 0,
        "meta_classification_type": "U",
        "meta_norad_cat_id": 39741,
        "meta_element_set_no": 999,
        "meta_rev_at_epoch": 8492,
        "meta_bstar": 0,
        "meta_mean_motion_dot": -8.1e-07,
        "meta_mean_motion_ddot": 0,
        "tle_line1": "1 39741U 14026A   25352.97552692 -.00000081  00000+0  00000+0 0  9997",
        "tle_line2": "2 39741  56.5812 338.5339 0039341 319.0443  40.6665  2.00561009 84924"
      },
      "geometry": {
        "type": "Point",
        "coordinates": [
          168.64393768623208,
          -15.08623304268771
        ]
      }
    },
    {
      "type": "Feature",
      "properties": {
        "norad_id": 40001,
        "name": "COSMOS 2500 (755)",
        "group": "gnss",
        "lat": 65.0432785412935,
        "lon": 40.30040907824319,
        "alt_km": 19136.125291560944,
        "timestamp": "2025-12-22T05:49:03.741722+00:00",
        "meta_object_name": "COSMOS 2500 (755)",
        "meta_object_id": "2014-032A",
        "meta_epoch": "2025-12-21T04:35:55.026240",
        "meta_mean_motion": 2.13106227,
        "meta_eccentricity": 0.00077299,
        "meta_inclination": 65.3386,
        "meta_ra_of_asc_node": 319.7453,
        "meta_arg_of_pericenter": 219.3736,
        "meta_mean_anomaly": 140.5635,
        "meta_ephemeris_type": 0,
        "meta_classification_type": "U",
        "meta_norad_cat_id": 40001,
        "meta_element_set_no": 999,
        "meta_rev_at_epoch": 8966,
        "meta_bstar": 0,
        "meta_mean_motion_dot": -4.7e-07,
        "meta_mean_motion_ddot": 0,
        "tle_line1": "1 40001U 14032A   25355.19160910 -.00000047  00000+0  00000+0 0  9992",
        "tle_line2": "2 40001  65.3386 319.7453 0007729 219.3736 140.5635  2.13106227 89663"
      },
      "geometry": {
        "type": "Point",
        "coordinates": [
          40.30040907824319,
          65.0432785412935
        ]
      }
    },
    {
      "type": "Feature",
      "properties": {
        "norad_id": 40105,
        "name": "GPS BIIF-7  (PRN 09)",
        "group": "gnss",
        "lat": 34.43571460080248,
        "lon": -112.86885847047893,
        "alt_km": 20094.486887397503,
        "timestamp": "2025-12-22T05:49:03.741736+00:00",
        "meta_object_name": "GPS BIIF-7  (PRN 09)",
        "meta_object_id": "2014-045A",
        "meta_epoch": "2025-12-21T13:19:50.036736",
        "meta_mean_motion": 2.00573131,
        "meta_eccentricity": 0.0032463,
        "meta_inclination": 55.2342,
        "meta_ra_of_asc_node": 95.5472,
        "meta_arg_of_pericenter": 120.1198,
        "meta_mean_anomaly": 240.2018,
        "meta_ephemeris_type": 0,
        "meta_classification_type": "U",
        "meta_norad_cat_id": 40105,
        "meta_element_set_no": 999,
        "meta_rev_at_epoch": 8251,
        "meta_bstar": 0,
        "meta_mean_motion_dot": -7e-08,
        "meta_mean_motion_ddot": 0,
        "tle_line1": "1 40105U 14045A   25355.55544024 -.00000007  00000+0  00000+0 0  9999",
        "tle_line2": "2 40105  55.2342  95.5472 0032463 120.1198 240.2018  2.00573131 82510"
      },
      "geometry": {
        "type": "Point",
        "coordinates": [
          -112.86885847047893,
          34.43571460080248
        ]
      }
    }
  ]
}